NORAD_CAT_ID,OBJECT_NAME,OBJECT_TYPE,EPOCH,MEAN_MOTION,ECCENTRICITY,INCLINATION,RA_OF_ASC_NODE,ARG_OF_PERICENTER,MEAN_ANOMALY,BSTAR,MEAN_MOTION_DOT,MEAN_MOTION_DDOT,TLE_LINE0,TLE_LINE1,TLE_LINE2,SEMIMAJOR_AXIS,PERIOD,APOGEE,PERIGEE,DECAYED
55780.0,STARLINK-5819,PAYLOAD,2024-02-11 03:21:16,14.98330176,0.0002667,70.0021,334.3423,251.8217,108.2652,0.00012203,1.363e-05,0.0,0 STARLINK-5819,1 55780U 23028AR  24042.13977453  .00001363  00000-0  12203-3 0  9995,2 55780  70.0021 334.3423 0002667 251.8217 108.2652 14.98330176 53066,6950.192,96.107,573.911,570.204,0.0
55780.0,STARLINK-5819,PAYLOAD,2024-02-11 04:57:24,14.98330197,0.0002723,70.0017,334.1726,259.6979,100.3874,0.00011564,1.287e-05,0.0,0 STARLINK-5819,1 55780U 23028AR  24042.20653483  .00001287  00000-0  11564-3 0  9991,2 55780  70.0017 334.1726 0002723 259.6979 100.3874 14.98330197 53072,6950.192,96.107,573.95,570.165,0.0
55780.0,STARLINK-5819,PAYLOAD,2024-02-11 22:34:53,14.98338438,0.0002666,70.0016,332.3204,256.9882,103.098,-3.1241e-05,-4.66e-06,0.0,0 STARLINK-5819,1 55780U 23028AR  24042.94089128 -.00000466  00000-0 -31241-4 0  9996,2 55780  70.0016 332.3204 0002666 256.9882 103.0980 14.98338438 53187,6950.167,96.106,573.885,570.179,0.0
55780.0,STARLINK-5819,PAYLOAD,2024-02-12 03:23:16,14.98342175,0.0002612,70.0016,331.8156,254.9583,105.1287,1.769e-05,1.18e-06,0.0,0 STARLINK-5819,1 55780U 23028AR  24043.14116620  .00000118  00000-0  17690-4 0  9991,2 55780  70.0016 331.8156 0002612 254.9583 105.1287 14.98342175 53214,6950.155,96.106,573.836,570.205,0.0
55780.0,STARLINK-5819,PAYLOAD,2024-02-12 04:59:24,14.98343812,0.0002607,70.0017,331.6477,254.4053,105.6818,3.6185e-05,3.39e-06,0.0,0 STARLINK-5819,1 55780U 23028AR  24043.20792445  .00000339  00000-0  36185-4 0  9998,2 55780  70.0017 331.6477 0002607 254.4053 105.6818 14.98343812 53225,6950.15,96.106,573.827,570.203,0.0
55780.0,STARLINK-5819,PAYLOAD,2024-02-12 19:24:37,14.98332366,0.0002476,70.0022,330.1334,243.29,116.8005,-1.38e-05,-2.58e-06,0.0,0 STARLINK-5819,1 55780U 23028AR  24043.80877052 -.00000258  00000-0 -13800-4 0  9993,2 55780  70.0022 330.1334 0002476 243.2900 116.8005 14.98332366 53312,6950.186,96.107,573.771,570.33,0.0
55780.0,STARLINK-5819,PAYLOAD,2024-02-12 22:36:54,14.98329459,0.0002539,70.0024,329.7989,240.6442,119.4464,-5.7001e-05,-7.73e-06,0.0,0 STARLINK-5819,1 55780U 23028AR  24043.94229316 -.00000773  00000-0 -57001-4 0  9995,2 55780  70.0024 329.7989 0002539 240.6442 119.4464 14.98329459 53335,6950.195,96.107,573.824,570.295,0.0
55780.0,STARLINK-5819,PAYLOAD,2024-02-13 03:25:18,14.98322969,0.0002571,70.0021,329.2932,249.0369,111.0515,-0.00011336,-1.445e-05,0.0,0 STARLINK-5819,1 55780U 23028AR  24044.14257960 -.00001445  00000-0 -11336-3 0  9991,2 55780  70.0021 329.2932 0002571 249.0369 111.0515 14.98322969 53369,6950.215,96.107,573.867,570.293,0.0
55780.0,STARLINK-5819,PAYLOAD,2024-02-13 05:01:26,14.98323262,0.0002623,70.0017,329.1236,258.074,102.0125,-9.6713e-05,-1.246e-05,0.0,0 STARLINK-5819,1 55780U 23028AR  24044.20933981 -.00001246  00000-0 -96713-4 0  9994,2 55780  70.0017 329.1236 0002623 258.0740 102.0125 14.98323262 53376,6950.214,96.107,573.902,570.256,0.0
55780.0,STARLINK-5819,PAYLOAD,2024-02-13 21:02:46,14.98336653,0.0002735,70.0012,327.442,251.6947,108.3915,-2.3282e-05,-3.71e-06,0.0,0 STARLINK-5819,1 55780U 23028AR  24044.87692944 -.00000371  00000-0 -23282-4 0  9997,2 55780  70.0012 327.4420 0002735 251.6947 108.3915 14.98336653 53474,6950.172,96.107,573.938,570.136,0.0
55780.0,STARLINK-5819,PAYLOAD,2024-02-13 22:38:54,14.98336821,0.0002723,70.0013,327.2735,252.3861,107.7001,-1.8168e-05,-3.1e-06,0.0,0 STARLINK-5819,1 55780U 23028AR  24044.94368901 -.00000310  00000-0 -18168-4 0  9998,2 55780  70.0013 327.2735 0002723 252.3861 107.7001 14.98336821 53489,6950.172,96.107,573.929,570.144,0.0
55780.0,STARLINK-5819,PAYLOAD,2024-02-14 11:27:59,14.98335166,0.0002007,70.0029,325.923,282.3778,77.7156,-6.8236e-05,-9.07e-06,0.0,0 STARLINK-5819,1 55780U 23028AR  24045.47777157 -.00000907  00000-0 -68236-4 0  9997,2 55780  70.0029 325.9230 0002007 282.3778  77.7156 14.98335166 53563,6950.177,96.107,573.437,570.647,0.0
55780.0,STARLINK-5819,PAYLOAD,2024-02-14 22:40:56,14.98322022,0.0002737,70.0005,324.7476,263.8397,96.245,2.9555e-05,2.6e-06,0.0,0 STARLINK-5819,1 55780U 23028AR  24045.94509655  .00000260  00000-0  29555-4 0  9996,2 55780  70.0005 324.7476 0002737 263.8397  96.2450 14.98322022 53635,6950.218,96.108,573.985,570.18,0.0
55780.0,STARLINK-5819,PAYLOAD,2024-02-15 03:29:20,14.98324369,0.0002863,70.0004,324.2439,260.1722,99.9114,4.3374e-05,4.25e-06,0.0,0 STARLINK-5819,1 55780U 23028AR  24046.14537493  .00000425  00000-0  43374-4 0  9998,2 55780  70.0004 324.2439 0002863 260.1722  99.9114 14.98324369 53666,6950.21,96.107,574.065,570.085,0.0
55780.0,STARLINK-5819,PAYLOAD,2024-02-15 05:05:28,14.9832349,0.0002454,70.0016,324.0745,258.2142,101.8742,7.7602e-05,8.33e-06,0.0,0 STARLINK-5819,1 55780U 23028AR  24046.21213584  .00000833  00000-0  77602-4 0  9992,2 55780  70.0016 324.0745 0002454 258.2142 101.8742 14.98323490 53672,6950.213,96.107,573.784,570.372,0.0
55780.0,STARLINK-5819,PAYLOAD,2024-02-15 22:42:57,14.98309867,0.0002956,70.0008,322.2203,270.5091,89.5729,0.00026035,3.013e-05,0.0,0 STARLINK-5819,1 55780U 23028AR  24046.94649968  .00003013  00000-0  26035-3 0  9997,2 55780  70.0008 322.2203 0002956 270.5091  89.5729 14.98309867 53780,6950.255,96.108,574.175,570.066,0.0
55780.0,STARLINK-5819,PAYLOAD,2024-02-16 03:31:21,14.98333867,0.0002866,70.0004,321.7164,271.254,88.8291,6.1141e-06,-2e-07,0.0,0 STARLINK-5819,1 55780U 23028AR  24047.14677188 -.00000020  00000-0  61141-5 0  9990,2 55780  70.0004 321.7164 0002866 271.2540  88.8291 14.98333867 53810,6950.181,96.107,574.038,570.054,0.0
55780.0,STARLINK-5819,PAYLOAD,2024-02-16 11:32:01,14.9833216,0.0002775,70.0001,320.875,265.1257,94.9585,-9.0186e-05,-1.169e-05,0.0,0 STARLINK-5819,1 55780U 23028AR  24047.48057467 -.00001169  00000-0 -90186-4 0  9995,2 55780  70.0001 320.8750 0002775 265.1257  94.9585 14.98332160 53868,6950.186,96.107,573.98,570.123,0.0
55780.0,STARLINK-5819,PAYLOAD,2024-02-16 19:32:42,14.98322527,0.0002796,70.0008,320.0326,270.363,89.7208,4.5711e-05,4.52e-06,0.0,0 STARLINK-5819,1 55780U 23028AR  24047.81437798  .00000452  00000-0  45711-4 0  9997,2 55780  70.0008 320.0326 0002796 270.3630  89.7208 14.98322527 53918,6950.216,96.107,574.024,570.138,0.0
55780.0,STARLINK-5819,PAYLOAD,2024-02-16 21:08:50,14.98322456,0.0002836,70.0004,319.8643,270.343,89.7404,5.2907e-05,5.38e-06,0.0,0 STARLINK-5819,1 55780U 23028AR  24047.88113796  .00000538  00000-0  52907-4 0  9993,2 55780  70.0004 319.8643 0002836 270.3430  89.7404 14.98322456 53925,6950.216,96.107,574.052,570.11,0.0
55780.0,STARLINK-5819,PAYLOAD,2024-02-17 03:33:22,14.98330943,0.0002794,70.0007,319.1897,271.0059,89.078,4.6581e-05,4.63e-06,0.0,0 STARLINK-5819,1 55780U 23028AR  24048.14817357  .00000463  00000-0  46581-4 0  9995,2 55780  70.0007 319.1897 0002794 271.0059  89.0780 14.98330943 53964,6950.19,96.107,573.997,570.113,0.0
55780.0,STARLINK-5819,PAYLOAD,2024-02-17 11:34:02,14.98330236,0.0002784,70.0007,318.3484,271.1372,88.9468,3.6109e-05,3.38e-06,0.0,0 STARLINK-5819,1 55780U 23028AR  24048.48197433  .00000338  00000-0  36109-4 0  9994,2 55780  70.0007 318.3484 0002784 271.1372  88.9468 14.98330236 54018,6950.192,96.107,573.992,570.122,0.0
55780.0,STARLINK-5819,PAYLOAD,2024-02-17 22:46:59,14.9832836,0.0002861,70.0003,317.17,270.6191,89.4641,6.4261e-05,6.74e-06,0.0,0 STARLINK-5819,1 55780U 23028AR  24048.94929455  .00000674  00000-0  64261-4 0  9995,2 55780  70.0003 317.1700 0002861 270.6191  89.4641 14.98328360 54082,6950.198,96.107,574.051,570.075,0.0
55780.0,STARLINK-5819,PAYLOAD,2024-02-18 03:35:22,14.98334163,0.00028,70.0004,316.6652,267.3112,92.7727,6.4922e-05,6.82e-06,0.0,0 STARLINK-5819,1 55780U 23028AR  24049.14957053  .00000682  00000-0  64922-4 0  9996,2 55780  70.0004 316.6652 0002800 267.3112  92.7727 14.98334163 54116,6950.18,96.107,573.991,570.099,0.0
55780.0,STARLINK-5819,PAYLOAD,2024-02-18 11:36:03,14.9833177,0.000258,70.0006,315.8233,271.665,88.4214,5.3499e-05,5.45e-06,0.0,0 STARLINK-5819,1 55780U 23028AR  24049.48337242  .00000545  00000-0  53499-4 0  9990,2 55780  70.0006 315.8233 0002580 271.6650  88.4214 14.98331770 54163,6950.187,96.107,573.846,570.259,0.0
55780.0,STARLINK-5819,PAYLOAD,2024-02-18 22:48:59,14.98328899,0.00029,70.0003,314.6451,270.0017,90.081,6.5882e-05,6.93e-06,0.0,0 STARLINK-5819,1 55780U 23028AR  24049.95069236  .00000693  00000-0  65882-4 0  9990,2 55780  70.0003 314.6451 0002900 270.0017  90.0810 14.98328899 54232,6950.196,96.107,574.077,570.046,0.0
55780.0,STARLINK-5819,PAYLOAD,2024-02-19 03:37:23,14.98334816,0.0002932,69.9999,314.1416,269.1783,90.904,5.6599e-05,5.82e-06,0.0,0 STARLINK-5819,1 55780U 23028AR  24050.15096839  .00000582  00000-0  56599-4 0  9995,2 55780  69.9999 314.1416 0002932 269.1783  90.9040 14.98334816 54266,6950.178,96.107,574.081,570.005,0.0
55780.0,STARLINK-5819,PAYLOAD,2024-02-19 19:38:45,14.98325638,0.000278,70.0004,312.4579,274.0076,86.0765,-2.3543e-05,-3.74e-06,0.0,0 STARLINK-5819,1 55780U 23028AR  24050.81857661 -.00000374  00000-0 -23543-4 0  9990,2 55780  70.0004 312.4579 0002780 274.0076  86.0765 14.98325638 54361,6950.206,96.107,574.004,570.139,0.0
55780.0,STARLINK-5819,PAYLOAD,2024-02-19 21:14:53,14.98326329,0.000276,70.0002,312.2895,274.0541,86.0302,-3.012e-05,-4.52e-06,0.0,0 STARLINK-5819,1 55780U 23028AR  24050.88533635 -.00000452  00000-0 -30120-4 0  9995,2 55780  70.0002 312.2895 0002760 274.0541  86.0302 14.98326329 54379,6950.204,96.107,573.987,570.151,0.0
55780.0,STARLINK-5819,PAYLOAD,2024-02-20 10:03:56,14.98360837,0.0002832,70.0003,310.9429,277.2766,82.8071,-0.0005308,-6.426e-05,0.0,0 STARLINK-5819,1 55780U 23028AR  24051.41940503 -.00006426  00000-0 -53080-3 0  9997,2 55780  70.0003 310.9429 0002832 277.2766  82.8071 14.98360837 54450,6950.098,96.105,573.931,569.994,0.0
